SPACEMOBILE-004         
1 61049U 24163E   26187.48682539  .00011231  00000+0  51661-3 0  9994
2 61049  52.9667 220.1743 0007073 196.8401 163.2360 15.20801145100708
CZ-8A R/B               
1 66004U 25231K   26189.36373484 -.00000016  00000+0  52595-4 0  9990
2 66004  50.0053 309.2225 0116518 298.5607  60.3622 14.30160836 37970
SZ-21 MODULE            
1 66515U 25246C   26189.36306801  .00038003  00000+0  21506-3 0  9995
2 66515  41.4707 175.2569 0006621 172.7347 187.3595 15.78292762 37084
SPACEMOBILE-006         
1 67232U 25309A   26189.16910173  .00000190  00000+0  24444-4 0  9994
2 67232  52.9947 235.5229 0010630 192.2291 167.8446 15.18644437 29787
SPACEMOBILE-008         
1 69589U 26139A   26189.41414475  .00000553  00000+0  48131-4 0  9997
2 69589  52.9938 166.1941 0004704  40.1803 319.9535 15.12795607  3195
SPACEMOBILE-009         
1 69590U 26139B   26189.34955796  .00000530  00000+0  46945-4 0  9993
2 69590  52.9928 166.4987 0004937  35.3944 324.7374 15.12688799  3186
SPACEMOBILE-010         
1 69591U 26139C   26189.41798456  .00000482  00000+0  44398-4 0  9996
2 69591  52.9933 166.2159 0004820  26.6938 333.4300 15.12519992  3206
